BEIDOU-2 IGSO-1 (C06)   
1 36828U 10036A   23190.38745796 -.00000080  00000+0  00000+0 0  9998
2 36828  54.2385 172.6906 0037938 192.4930 170.4587  1.00284916 47469
BEIDOU-2 G4 (C04)       
1 37210U 10057A   23189.84285574 -.00000117  00000+0  00000+0 0  9990
2 37210   1.0558  57.7736 0003467 139.6908 192.5090  1.00270553 46510
BEIDOU-2 IGSO-2 (C07)   
1 37256U 10068A   23187.67870315 -.00000191  00000+0  00000+0 0  9996
2 37256  49.5166 285.0321 0028639 203.4276 144.2451  1.00245411 45995
BEIDOU-2 IGSO-3 (C08)   
1 37384U 11013A   23190.56719355 -.00000196  00000+0  00000+0 0  9992
2 37384  60.8544  50.4447 0026271 173.8399  12.5655  1.00295863 44901
BEIDOU-2 IGSO-4 (C09)   
1 37763U 11038A   23189.34750368  .00000023  00000+0  00000+0 0  9991
2 37763  54.5107 175.2297 0112149 228.5341 101.6167  1.00285568 43864
BEIDOU-2 IGSO-5 (C10)   
1 37948U 11073A   23189.73975944 -.00000169  00000+0  00000+0 0  9999
2 37948  49.6358 284.6686 0093547 219.2283 143.8776  1.00285795 42631
BEIDOU-2 G5 (C05)       
1 38091U 12008A   23189.80433602  .00000051  00000+0  00000+0 0  9995
2 38091   1.5785  67.3313 0001605 279.5976 287.8931  1.00276144 41704
BEIDOU-2 M3 (C11)       
1 38250U 12018A   23190.28097523 -.00000094  00000+0  00000+0 0  9993
2 38250  56.5429 340.7641 0021086 255.8877 103.8749  1.86231067 76284
BEIDOU-2 M4 (C12)       
1 38251U 12018B   23190.21264916 -.00000094  00000+0  00000+0 0  9999
2 38251  56.4545 340.0636 0011934 256.3352 103.5288  1.86231787 76289
BEIDOU-2 M6 (C14)       
1 38775U 12050B   23189.92273474 -.00000033  00000+0  00000+0 0  9994
2 38775  55.6499  98.6945 0013696 333.7209  26.2309  1.86231180 73656
BEIDOU-2 G6 (C02)       
1 38953U 12059A   23189.89073279 -.00000179  00000+0  00000+0 0  9999
2 38953   1.8882  82.3687 0009519 322.4618 286.3541  1.00267970 39273
BEIDOU-3S IGSO-1S (C31) 
1 40549U 15019A   23190.23657280 -.00000204  00000+0  00000+0 0  9991
2 40549  51.2038 308.2416 0039888 193.0970 327.1916  1.00268522 30314
BEIDOU-3S M2S (C57)     
1 40748U 15037A   23190.41594290 -.00000097  00000+0  00000+0 0  9993
2 40748  55.6970 338.6913 0008720 238.8505 121.0609  1.86233084 54124
BEIDOU-3S M1S (C58)     
1 40749U 15037B   23190.14901635 -.00000095  00000+0  00000+0 0  9997
2 40749  55.6997 338.6868 0002774 352.1229   7.8695  1.86232835 54117
BEIDOU-3S IGSO-2S (C56) 
1 40938U 15053A   23189.17147258 -.00000127  00000+0  00000+0 0  9995
2 40938  50.8967 271.4219 0047410 192.3774 336.6150  1.00295549 28566
BEIDOU-2 IGSO-6 (C13)   
1 41434U 16021A   23189.62667219 -.00000165  00000+0  00000+0 0  9999
2 41434  58.6652  48.8522 0045675 218.7353 338.1578  1.00293596 26700
BEIDOU-2 G7 (C03)       
1 41586U 16037A   23189.86880138 -.00000359  00000+0  00000+0 0  9992
2 41586   1.7394  67.5443 0008132 351.0754 291.2137  1.00274458 26013
BEIDOU-3 M1 (C19)       
1 43001U 17069A   23190.22610615 -.00000037  00000+0  00000+0 0  9998
2 43001  55.8018  98.7353 0010207 302.3958  57.5260  1.86231478 38604
BEIDOU-3 M2 (C20)       
1 43002U 17069B   23190.16269496 -.00000036  00000+0  00000+0 0  9998
2 43002  55.8010  98.7738 0008552 325.9580  34.0077  1.86231116 38599
BEIDOU-3 M7 (C27)       
1 43107U 18003A   23190.45081117 -.00000098  00000+0  00000+0 0  9995
2 43107  55.1518 339.4321 0004899  73.7209 286.3301  1.86232380 37360
BEIDOU-3 M8 (C28)       
1 43108U 18003B   23189.85148836 -.00000095  00000+0  00000+0 0  9997
2 43108  55.1454 339.4398 0002564 240.5091 119.4626  1.86230820 37356
BEIDOU-3 M4 (C22)       
1 43207U 18018A   23187.60934179 -.00000013  00000+0  00000+0 0  9997
2 43207  55.7589  98.9243 0006320 350.1747   9.8341  1.86231305 36698
BEIDOU-3 M3 (C21)       
1 43208U 18018B   23189.28681409 -.00000025  00000+0  00000+0 0  9992
2 43208  55.7595  98.8723 0008254 314.7428  45.2122  1.86231218 36726
BEIDOU-3 M9 (C29)       
1 43245U 18029A   23190.04692692 -.00000096  00000+0  00000+0 0  9995
2 43245  55.0489 337.1843 0000784 136.6652 223.3379  1.86232406 35894
BEIDOU-3 M10 (C30)      
1 43246U 18029B   23189.97705347 -.00000095  00000+0  00000+0 0  9997
2 43246  55.0459 337.2160 0003444  18.0324 341.9766  1.86232829 35885
BEIDOU-2 IGSO-7 (C16)   
1 43539U 18057A   23186.86672528 -.00000090  00000+0  00000+0 0  9997
2 43539  55.1100 172.3613 0061777 231.5188 300.8181  1.00249035 18359
BEIDOU-3 M5 (C23)       
1 43581U 18062A   23190.19766491  .00000063  00000+0  00000+0 0  9993
2 43581  54.1859 218.8621 0005607 270.2338  89.7563  1.86231762 33635
BEIDOU-3 M6 (C24)       
1 43582U 18062B   23189.52594397  .00000058  00000+0  00000+0 0  9997
2 43582  54.1856 218.8747 0004214 347.3731  12.6712  1.86229417 33622
BEIDOU-3 M12 (C26)      
1 43602U 18067A   23189.46281867  .00000060  00000+0  00000+0 0  9996
2 43602  54.2727 217.5270 0006513   9.2958 350.7694  1.86231613 33119
BEIDOU-3 M11 (C25)      
1 43603U 18067B   23189.59662417  .00000061  00000+0  00000+0 0  9996
2 43603  54.2698 217.4882 0003738 350.4237   9.6220  1.86231530 33137
BEIDOU-3 M13 (C32)      
1 43622U 18072A   23187.40713710 -.00000013  00000+0  00000+0 0  9992
2 43622  55.7277  98.4731 0006917 301.1291  58.8246  1.86231609 32604
BEIDOU-3 M14 (C33)      
1 43623U 18072B   23188.61630265 -.00000019  00000+0  00000+0 0  9996
2 43623  55.7303  98.4255 0005234 327.9249 212.9563  1.86231602 32626
BEIDOU-3 M16 (C35)      
1 43647U 18078A   23189.58140161 -.00000093  00000+0  00000+0 0  9998
2 43647  54.9450 337.3279 0006853  18.8263 341.1958  1.86227169 32151
BEIDOU-3 M15 (C34)      
1 43648U 18078B   23189.17661638 -.00000091  00000+0  00000+0 0  9999
2 43648  54.9410 337.3460 0004092  36.7307 323.2940  1.86232162 32163
BEIDOU-3 G1 (C59)       
1 43683U 18085A   23190.18632632 -.00000284  00000+0  00000+0 0  9995
2 43683   1.3955 128.4857 0004306 331.4825  33.8725  1.00265445 17286
BEIDOU-3 M17 (C36)      
1 43706U 18093A   23190.39908348  .00000065  00000+0  00000+0 0  9999
2 43706  54.2683 218.7684 0010668 275.0450  84.8876  1.86231861 31528
BEIDOU-3 M18 (C37)      
1 43707U 18093B   23189.72741703  .00000059  00000+0  00000+0 0  9998
2 43707  54.2691 218.7828 0008523 298.1238  61.8446  1.86229630 31524
BEIDOU-3 IGSO-1 (C38)   
1 44204U 19023A   23190.56634902 -.00000233  00000+0  00000+0 0  9996
2 44204  57.1318  48.8397 0022186 194.5864   4.3598  1.00299358 15592
BEIDOU-2 G8 (C01)       
1 44231U 19027A   23189.74960907 -.00000254  00000+0  00000+0 0  9998
2 44231   1.8143  81.2889 0005405 121.2626 138.2112  1.00267905 15298
BEIDOU-3 IGSO-2 (C39)   
1 44337U 19035A   23189.90024569 -.00000092  00000+0  00000+0 0  9997
2 44337  55.1535 168.2968 0033569 198.8884   1.2070  1.00292325 14929
BEIDOU-3 M24 (C46)      
1 44542U 19061A   23189.26263261  .00000057  00000+0  00000+0 0  9997
2 44542  54.4956 219.0257 0007881 332.8674  27.1472  1.86231240 25778
BEIDOU-3 M23 (C45)      
1 44543U 19061B   23189.92836913  .00000061  00000+0  00000+0 0  9996
2 44543  54.4938 218.9722 0005609 313.1301  45.0472  1.86231515 25784
BEIDOU-3 IGSO-3 (C40)   
1 44709U 19073A   23187.69874074 -.00000197  00000+0  00000+0 0  9996
2 44709  56.6336 292.3793 0034378 186.4208 173.5735  1.00300337 13646
BEIDOU-3 M22 (C44)      
1 44793U 19078A   23189.64464960 -.00000094  00000+0  00000+0 0  9996
2 44793  54.7936 337.3000 0005905  28.1696 331.8592  1.86232142 24646
BEIDOU-3 M21 (C43)      
1 44794U 19078B   23186.55366071 -.00000081  00000+0  00000+0 0  9994
2 44794  54.7691 337.3900 0003853  28.1949 331.8201  1.86232542 24589
BEIDOU-3 M19 (C41)      
1 44864U 19090A   23190.29702260 -.00000038  00000+0  00000+0 0  9998
2 44864  55.6642  98.5658 0017294 278.7733 264.9168  1.86231704 24225
BEIDOU-3 M20 (C42)      
1 44865U 19090B   23188.60032778 -.00000019  00000+0  00000+0 0  9990
2 44865  55.6650  98.6558 0015538 292.4429 283.4905  1.86231569 24177
BEIDOU-3 G2 (C60)       
1 45344U 20017A   23189.80860709 -.00000147  00000+0  00000+0 0  9992
2 45344   2.0189  13.2103 0003238 116.5567 167.8420  1.00272314 12493
BEIDOU-3 G3 (C61)       
1 45807U 20040A   23190.50796880 -.00000357  00000+0  00000+0 0  9992
2 45807   0.6761 333.3396 0006682 307.9389 299.2128  1.00265217 11310
BEIDOU-3 G4             
1 56564U 23066A   23189.96786469 -.00000115  00000+0  00000+0 0  9997
2 56564   2.9839 289.1090 0007272 194.6277 311.3509  1.00270722   634
